{
    "links": {
        "self": "http://www.neowsapp.com/rest/v1/neo/3324509?api_key=iIulBulltgU6a56xZRHN4H3l9WmuAYTsLGpBGhQ2"
    },
    "id": "3324509",
    "neo_reference_id": "3324509",
    "name": "(2006 DD42)",
    "designation": "2006 DD42",
    "nasa_jpl_url": "http://ssd.jpl.nasa.gov/sbdb.cgi?sstr=3324509",
    "absolute_magnitude_h": 23.9,
    "estimated_diameter": {
        "kilometers": {
            "estimated_diameter_min": 0.04411182,
            "estimated_diameter_max": 0.0986370281
        },
        "meters": {
            "estimated_diameter_min": 44.1118199997,
            "estimated_diameter_max": 98.6370281305
        },
        "miles": {
            "estimated_diameter_min": 0.0274098057,
            "estimated_diameter_max": 0.0612901888
        },
        "feet": {
            "estimated_diameter_min": 144.7238235278,
            "estimated_diameter_max": 323.6123073718
        }
    },
    "is_potentially_hazardous_asteroid": false,
    "close_approach_data": [
        {
            "close_approach_date": "2006-02-16",
            "close_approach_date_full": "2006-Feb-16 01:40",
            "epoch_date_close_approach": 1140054000000,
            "relative_velocity": {
                "kilometers_per_second": "4.7936772861",
                "kilometers_per_hour": "17257.2382299288",
                "miles_per_hour": "10722.9767212577"
            },
            "miss_distance": {
                "astronomical": "0.1417014939",
                "lunar": "55.1218811271",
                "kilometers": "21198241.663257993",
                "miles": "13171976.5768785834"
            },
            "orbiting_body": "Earth"
        }
    ],
    "orbital_data": {
        "orbit_id": "9",
        "orbit_determination_date": "2017-04-06 09:09:02",
        "first_observation_date": "2006-02-24",
        "last_observation_date": "2006-03-25",
        "data_arc_in_days": 29,
        "observations_used": 21,
        "orbit_uncertainty": "7",
        "minimum_orbit_intersection": ".130308",
        "jupiter_tisserand_invariant": "3.722",
        "epoch_osculation": "2459000.5",
        "eccentricity": ".4383753621406727",
        "semi_major_axis": "1.990868771408655",
        "inclination": "4.746086216313369",
        "ascending_node_longitude": "335.7483196362039",
        "orbital_period": "1026.03547900869",
        "perihelion_distance": "1.11812095276783",
        "perihelion_argument": "171.1325688335568",
        "aphelion_distance": "2.863616590049481",
        "perihelion_time": "2458906.914130640294",
        "mean_anomaly": "32.83601167675477",
        "mean_motion": ".3508650600930642",
        "equinox": "J2000",
        "orbit_class": {
            "orbit_class_type": "AMO",
            "orbit_class_description": "Near-Earth asteroid orbits similar to that of 1221 Amor",
            "orbit_class_range": "1.017 AU < q (perihelion) < 1.3 AU"
        }
    },
    "is_sentry_object": false
}